{"type": "FeatureCollection", "features": [ {"type": "Feature", "properties": {"norad_id": 39574, "name": "GPM-CORE", "group": "resource", "lat": 62.770564601349705, "lon": -1.4069970938251235, "alt_km": 430.7604776081489, "timestamp": "2025-12-03T10:52:57.106818+00:00", "meta": {"OBJECT_NAME": "GPM-CORE", "OBJECT_ID": "2014-009C", "EPOCH": "2025-12-03T04:13:58.882080", "MEAN_MOTION": 15.45163195, "ECCENTRICITY": 0.0010568, "INCLINATION": 64.9754, "RA_OF_ASC_NODE": 244.7316, "ARG_OF_PERICENTER": 268.6732, "MEAN_ANOMALY": 91.3198, "EPHEMERIS_TYPE": 0, "CLASSIFICATION_TYPE": "U", "NORAD_CAT_ID": 39574, "ELEMENT_SET_NO": 999, "REV_AT_EPOCH": 66753, "BSTAR": 0.0004286, "MEAN_MOTION_DOT": 0.00020282, "MEAN_MOTION_DDOT": 0}, "tle": {"line1": "1 39574U 14009C   25337.17637595  .00020282  00000+0  42860-3 0  9991", "line2": "2 39574  64.9754 244.7316 0010568 268.6732  91.3198 15.45163195667534"}}, "geometry": {"type": "Point", "coordinates": [-1.4069970938251235, 62.770564601349705]}}, {"type": "Feature", "properties": {"norad_id": 39634, "name": "SENTINEL-1A", "group": "resource", "lat": -28.96647877095948, "lon": -12.600918534916136, "alt_km": 702.0408488039902, "timestamp": "2025-12-03T10:52:57.106828+00:00", "meta": {"OBJECT_NAME": "SENTINEL-1A", "OBJECT_ID": "2014-016A", "EPOCH": "2025-12-03T04:26:01.140288", "MEAN_MOTION": 14.59201308, "ECCENTRICITY": 0.0001251, "INCLINATION": 98.1805, "RA_OF_ASC_NODE": 342.5672, "ARG_OF_PERICENTER": 89.0755, "MEAN_ANOMALY": 271.0588, "EPHEMERIS_TYPE": 0, "CLASSIFICATION_TYPE": "U", "NORAD_CAT_ID": 39634, "ELEMENT_SET_NO": 999, "REV_AT_EPOCH": 62143, "BSTAR": 7.3774e-05, "MEAN_MOTION_DOT": 3.02e-06, "MEAN_MOTION_DDOT": 0}, "tle": {"line1": "1 39634U 14016A   25337.18473542  .00000302  00000+0  73774-4 0  9997", "line2": "2 39634  98.1805 342.5672 0001251  89.0755 271.0588 14.59201308621430"}}, "geometry": {"type": "Point", "coordinates": [-12.600918534916136, -28.96647877095948]}}, {"type": "Feature", "properties": {"norad_id": 39731, "name": "KAZEOSAT 1", "group": "resource", "lat": 22.139699819229715, "lon": -127.00767875259245, "alt_km": 751.0363997052336, "timestamp": "2025-12-03T10:52:57.106839+00:00", "meta": {"OBJECT_NAME": "KAZEOSAT 1", "OBJECT_ID": "2014-024A", "EPOCH": "2025-12-03T03:29:36.835008", "MEAN_MOTION": 14.42053223, "ECCENTRICITY": 0.000106, "INCLINATION": 98.3445, "RA_OF_ASC_NODE": 49.2678, "ARG_OF_PERICENTER": 98.9912, "MEAN_ANOMALY": 261.1398, "EPHEMERIS_TYPE": 0, "CLASSIFICATION_TYPE": "U", "NORAD_CAT_ID": 39731, "ELEMENT_SET_NO": 999, "REV_AT_EPOCH": 61030, "BSTAR": 0.00011764, "MEAN_MOTION_DOT": 3.43e-06, "MEAN_MOTION_DDOT": 0}, "tle": {"line1": "1 39731U 14024A   25337.14556522  .00000343  00000+0  11764-3 0  9995", "line2": "2 39731  98.3445  49.2678 0001060  98.9912 261.1398 14.42053223610305"}}, "geometry": {"type": "Point", "coordinates": [-127.00767875259245, 22.139699819229715]}}, {"type": "Feature", "properties": {"norad_id": 39766, "name": "ALOS-2", "group": "resource", "lat": -52.676663257279614, "lon": -118.09348421618762, "alt_km": 638.678395782139, "timestamp": "2025-12-03T10:52:57.106850+00:00", "meta": {"OBJECT_NAME": "ALOS-2", "OBJECT_ID": "2014-029A", "EPOCH": "2025-12-03T04:57:41.461632", "MEAN_MOTION": 14.7944967, "ECCENTRICITY": 0.0001528, "INCLINATION": 97.9237, "RA_OF_ASC_NODE": 72.1888, "ARG_OF_PERICENTER": 107.6565, "MEAN_ANOMALY": 252.4814, "EPHEMERIS_TYPE": 0, "CLASSIFICATION_TYPE": "U", "NORAD_CAT_ID": 39766, "ELEMENT_SET_NO": 999, "REV_AT_EPOCH": 62260, "BSTAR": 0.00070144, "MEAN_MOTION_DOT": 5.188e-05, "MEAN_MOTION_DDOT": 0}, "tle": {"line1": "1 39766U 14029A   25337.20672988  .00005188  00000+0  70144-3 0  9999", "line2": "2 39766  97.9237  72.1888 0001528 107.6565 252.4814 14.79449670622603"}}, "geometry": {"type": "Point", "coordinates": [-118.09348421618762, -52.676663257279614]}}, {"type": "Feature", "properties": {"norad_id": 40010, "name": "KAZEOSAT 2", "group": "resource", "lat": -45.89719299243985, "lon": -169.88625629491438, "alt_km": 618.3669457078149, "timestamp": "2025-12-03T10:52:57.106860+00:00", "meta": {"OBJECT_NAME": "KAZEOSAT 2", "OBJECT_ID": "2014-033A", "EPOCH": "2025-12-03T04:37:23.403936", "MEAN_MOTION": 14.85142007, "ECCENTRICITY": 0.0007234, "INCLINATION": 97.5511, "RA_OF_ASC_NODE": 181.9997, "ARG_OF_PERICENTER": 242.4894, "MEAN_ANOMALY": 117.5587, "EPHEMERIS_TYPE": 0, "CLASSIFICATION_TYPE": "U", "NORAD_CAT_ID": 40010, "ELEMENT_SET_NO": 999, "REV_AT_EPOCH": 61986, "BSTAR": 0.00013001, "MEAN_MOTION_DOT": 1.063e-05, "MEAN_MOTION_DDOT": 0}, "tle": {"line1": "1 40010U 14033A   25337.19263199  .00001063  00000+0  13001-3 0  9993", "line2": "2 40010  97.5511 181.9997 0007234 242.4894 117.5587 14.85142007619864"}}, "geometry": {"type": "Point", "coordinates": [-169.88625629491438, -45.89719299243985]}}, {"type": "Feature", "properties": {"norad_id": 40011, "name": "HODOYOSHI-4", "group": "resource", "lat": -34.87368597759136, "lon": 172.09230286137296, "alt_km": 612.8939766763278, "timestamp": "2025-12-03T10:52:57.106871+00:00", "meta": {"OBJECT_NAME": "HODOYOSHI-4", "OBJECT_ID": "2014-033B", "EPOCH": "2025-12-03T04:34:57.699840", "MEAN_MOTION": 14.87423296, "ECCENTRICITY": 0.0022657, "INCLINATION": 97.5415, "RA_OF_ASC_NODE": 166.5453, "ARG_OF_PERICENTER": 233.3896, "MEAN_ANOMALY": 126.5238, "EPHEMERIS_TYPE": 0, "CLASSIFICATION_TYPE": "U", "NORAD_CAT_ID": 40011, "ELEMENT_SET_NO": 999, "REV_AT_EPOCH": 61966, "BSTAR": 0.00027676, "MEAN_MOTION_DOT": 2.463e-05, "MEAN_MOTION_DDOT": 0}, "tle": {"line1": "1 40011U 14033B   25337.19094560  .00002463  00000+0  27676-3 0  9996", "line2": "2 40011  97.5415 166.5453 0022657 233.3896 126.5238 14.87423296619666"}}, "geometry": {"type": "Point", "coordinates": [172.09230286137296, -34.87368597759136]}}, {"type": "Feature", "properties": {"norad_id": 40013, "name": "DEIMOS-2", "group": "resource", "lat": -60.49493843362246, "lon": -132.780053137918, "alt_km": 596.5141133448278, "timestamp": "2025-12-03T10:52:57.106881+00:00", "meta": {"OBJECT_NAME": "DEIMOS-2", "OBJECT_ID": "2014-033D", "EPOCH": "2025-12-03T04:43:21.989856", "MEAN_MOTION": 14.92900527, "ECCENTRICITY": 7.8e-05, "INCLINATION": 97.6072, "RA_OF_ASC_NODE": 213.3111, "ARG_OF_PERICENTER": 85.5925, "MEAN_ANOMALY": 274.5384, "EPHEMERIS_TYPE": 0, "CLASSIFICATION_TYPE": "U", "NORAD_CAT_ID": 40013, "ELEMENT_SET_NO": 999, "REV_AT_EPOCH": 60847, "BSTAR": 0.00033116, "MEAN_MOTION_DOT": 3.379e-05, "MEAN_MOTION_DDOT": 0}, "tle": {"line1": "1 40013U 14033D   25337.19678229  .00003379  00000+0  33116-3 0  9991", "line2": "2 40013  97.6072 213.3111 0000780  85.5925 274.5384 14.92900527608479"}}, "geometry": {"type": "Point", "coordinates": [-132.780053137918, -60.49493843362246]}}, {"type": "Feature", "properties": {"norad_id": 40015, "name": "HODOYOSHI-3", "group": "resource", "lat": -20.414429428797806, "lon": 146.54800660414406, "alt_km": 608.3455139789967, "timestamp": "2025-12-03T10:52:57.106892+00:00", "meta": {"OBJECT_NAME": "HODOYOSHI-3", "OBJECT_ID": "2014-033F", "EPOCH": "2025-12-03T01:16:13.285056", "MEAN_MOTION": 14.84750883, "ECCENTRICITY": 0.0031839, "INCLINATION": 97.6193, "RA_OF_ASC_NODE": 143.3094, "ARG_OF_PERICENTER": 281.1088, "MEAN_ANOMALY": 78.6548, "EPHEMERIS_TYPE": 0, "CLASSIFICATION_TYPE": "U", "NORAD_CAT_ID": 40015, "ELEMENT_SET_NO": 999, "REV_AT_EPOCH": 61851, "BSTAR": 0.00028718, "MEAN_MOTION_DOT": 2.404e-05, "MEAN_MOTION_DDOT": 0}, "tle": {"line1": "1 40015U 14033F   25337.05293154  .00002404  00000+0  28718-3 0  9998", "line2": "2 40015  97.6193 143.3094 0031839 281.1088  78.6548 14.84750883618510"}}, "geometry": {"type": "Point", "coordinates": [146.54800660414406, -20.414429428797806]}}, {"type": "Feature", "properties": {"norad_id": 40053, "name": "SPOT 7", "group": "resource", "lat": 34.82547623109779, "lon": -134.57739706466683, "alt_km": 687.8631338361756, "timestamp": "2025-12-03T10:52:57.106902+00:00", "meta": {"OBJECT_NAME": "SPOT 7", "OBJECT_ID": "2014-034A", "EPOCH": "2025-12-03T03:38:47.258304", "MEAN_MOTION": 14.60713258, "ECCENTRICITY": 0.0001516, "INCLINATION": 98.0919, "RA_OF_ASC_NODE": 39.4479, "ARG_OF_PERICENTER": 97.1018, "MEAN_ANOMALY": 263.0355, "EPHEMERIS_TYPE": 0, "CLASSIFICATION_TYPE": "U", "NORAD_CAT_ID": 40053, "ELEMENT_SET_NO": 999, "REV_AT_EPOCH": 60851, "BSTAR": 0.00017378, "MEAN_MOTION_DOT": 8.01e-06, "MEAN_MOTION_DDOT": 0}, "tle": {"line1": "1 40053U 14034A   25337.15193586  .00000801  00000+0  17378-3 0  9999", "line2": "2 40053  98.0919  39.4479 0001516  97.1018 263.0355 14.60713258608516"}}, "geometry": {"type": "Point", "coordinates": [-134.57739706466683, 34.82547623109779]}}, {"type": "Feature", "properties": {"norad_id": 40072, "name": "SKYSAT-B", "group": "resource", "lat": -81.32667690006413, "lon": -4.768021294555565, "alt_km": 614.033198237842, "timestamp": "2025-12-03T10:52:57.106912+00:00", "meta": {"OBJECT_NAME": "SKYSAT-B", "OBJECT_ID": "2014-037D", "EPOCH": "2025-12-03T03:12:11.896992", "MEAN_MOTION": 14.87267334, "ECCENTRICITY": 0.0005366, "INCLINATION": 98.3593, "RA_OF_ASC_NODE": 280.3334, "ARG_OF_PERICENTER": 179.935, "MEAN_ANOMALY": 180.1866, "EPHEMERIS_TYPE": 0, "CLASSIFICATION_TYPE": "U", "NORAD_CAT_ID": 40072, "ELEMENT_SET_NO": 999, "REV_AT_EPOCH": 61681, "BSTAR": 0.00032567, "MEAN_MOTION_DOT": 2.876e-05, "MEAN_MOTION_DDOT": 0}, "tle": {"line1": "1 40072U 14037D   25337.13347103  .00002876  00000+0  32567-3 0  9998", "line2": "2 40072  98.3593 280.3334 0005366 179.9350 180.1866 14.87267334616816"}}, "geometry": {"type": "Point", "coordinates": [-4.768021294555565, -81.32667690006413]}}]}